{
    "links": {
        "self": "http://www.neowsapp.com/rest/v1/neo/3986686?api_key=iIulBulltgU6a56xZRHN4H3l9WmuAYTsLGpBGhQ2"
    },
    "id": "3986686",
    "neo_reference_id": "3986686",
    "name": "(2020 AQ3)",
    "designation": "2020 AQ3",
    "nasa_jpl_url": "http://ssd.jpl.nasa.gov/sbdb.cgi?sstr=3986686",
    "absolute_magnitude_h": 23.559,
    "estimated_diameter": {
        "kilometers": {
            "estimated_diameter_min": 0.0516125096,
            "estimated_diameter_max": 0.1154090799
        },
        "meters": {
            "estimated_diameter_min": 51.6125095934,
            "estimated_diameter_max": 115.4090799402
        },
        "miles": {
            "estimated_diameter_min": 0.0320705167,
            "estimated_diameter_max": 0.0717118554
        },
        "feet": {
            "estimated_diameter_min": 169.3323859744,
            "estimated_diameter_max": 378.6387258311
        }
    },
    "is_potentially_hazardous_asteroid": false,
    "close_approach_data": [
        {
            "close_approach_date": "2020-01-18",
            "close_approach_date_full": "2020-Jan-18 21:05",
            "epoch_date_close_approach": 1579381500000,
            "relative_velocity": {
                "kilometers_per_second": "12.4355395737",
                "kilometers_per_hour": "44767.9424652617",
                "miles_per_hour": "27817.0584723733"
            },
            "miss_distance": {
                "astronomical": "0.0431406022",
                "lunar": "16.7816942558",
                "kilometers": "6453742.199637314",
                "miles": "4010169.4488263732"
            },
            "orbiting_body": "Earth"
        }
    ],
    "orbital_data": {
        "orbit_id": "5",
        "orbit_determination_date": "2020-04-19 06:36:11",
        "first_observation_date": "2020-01-14",
        "last_observation_date": "2020-01-18",
        "data_arc_in_days": 4,
        "observations_used": 36,
        "orbit_uncertainty": "8",
        "minimum_orbit_intersection": ".0183416",
        "jupiter_tisserand_invariant": "3.569",
        "epoch_osculation": "2458863.5",
        "eccentricity": ".5487760284143034",
        "semi_major_axis": "2.048846235910676",
        "inclination": "11.22218414084211",
        "ascending_node_longitude": "307.4280877106077",
        "orbital_period": "1071.180051341516",
        "perihelion_distance": ".9244885357360203",
        "perihelion_argument": "206.3533595416993",
        "aphelion_distance": "3.173203936085332",
        "perihelion_time": "2458893.029775684005",
        "mean_anomaly": "350.075693406605",
        "mean_motion": ".3360779539808887",
        "equinox": "J2000",
        "orbit_class": {
            "orbit_class_type": "APO",
            "orbit_class_description": "Near-Earth asteroid orbits which cross the Earth’s orbit similar to that of 1862 Apollo",
            "orbit_class_range": "a (semi-major axis) > 1.0 AU; q (perihelion) < 1.017 AU"
        }
    },
    "is_sentry_object": false
}